[{"OBJECT_NAME":"STARLINK-32502","OBJECT_ID":"2024-222C","EPOCH":"2026-03-09T12:46:37.798752","MEAN_MOTION":15.27597575,"ECCENTRICITY":0.0002243,"INCLINATION":43.0018,"RA_OF_ASC_NODE":137.1814,"ARG_OF_PERICENTER":283.9837,"MEAN_ANOMALY":76.0766,"EPHEMERIS_TYPE":0,"CLASSIFICATION_TYPE":"U","NORAD_CAT_ID":62116,"ELEMENT_SET_NO":999,"REV_AT_EPOCH":7278,"BSTAR":0.00089995,"MEAN_MOTION_DOT":0.00024599,"MEAN_MOTION_DDOT":0},{"OBJECT_NAME":"TITAN 3C TRANSTAGE DEB","OBJECT_ID":"1965-082PT","EPOCH":"2026-03-09T13:23:41.116128","MEAN_MOTION":15.28908269,"ECCENTRICITY":0.00104371,"INCLINATION":32.0266,"RA_OF_ASC_NODE":255.1391,"ARG_OF_PERICENTER":172.8339,"MEAN_ANOMALY":187.2474,"EPHEMERIS_TYPE":0,"CLASSIFICATION_TYPE":"U","NORAD_CAT_ID":3462,"ELEMENT_SET_NO":999,"REV_AT_EPOCH":24824,"BSTAR":0.0004444037,"MEAN_MOTION_DOT":0.00012939,"MEAN_MOTION_DDOT":0}]
